FENGYUN 1C DEB          
1 29896U 99025GS  26072.23362365  .00000337  00000+0  38527-3 0  9996
2 29896  99.4158 326.4445 0238208 229.1366 259.7165 13.65485931952772
FENGYUN 1C DEB          
1 29897U 99025GT  26073.28932492  .00001782  00000+0  19053-2 0  9994
2 29897  98.6273 291.5408 0296637 260.8819 162.7805 13.57589038941820
FENGYUN 1C DEB          
1 29898U 99025GU  26073.92052771  .00006128  00000+0  36168-2 0  9994
2 29898  98.2329  58.3220 0423404 300.7740 111.0812 13.71381673944246
FENGYUN 1C DEB          
1 29899U 99025GV  26071.84938463  .00000241  00000+0  36908-3 0  9998
2 29899  98.6734 219.2236 0352736 212.1790 145.7373 13.37529342932899
FENGYUN 1C DEB          
1 29901U 99025GX  26073.92700100  .00000207  00000+0  32678-3 0  9990
2 29901  98.7561 236.5062 0378953  55.8269  92.4358 13.33322130931479
FENGYUN 1C DEB          
1 29904U 99025HA  26073.88915755  .00002259  00000+0  51086-3 0  9995
2 29904  99.0273 122.6081 0207910  44.8444 316.9337 14.44844028  3883
FENGYUN 1C DEB          
1 29906U 99025HC  26073.74112716  .00011611  00000+0  28954-2 0  9997
2 29906  98.7018 185.1858 0036127 226.6850 133.1330 14.51383941994910
FENGYUN 1C DEB          
1 29907U 99025HD  26073.69706854  .00002231  00000+0  12022-2 0  9991
2 29907  99.1006 146.7858 0080484 352.7381 128.0473 14.12178329978968
FENGYUN 1C DEB          
1 29909U 99025HF  26073.87204252  .00012678  00000+0  27779-2 0  9999
2 29909  98.6311 185.8699 0038549  96.4506  21.5167 14.57334905997462
FENGYUN 1C DEB          
1 29911U 99025HH  26073.71719594  .00001331  00000+0  65431-3 0  9997
2 29911  98.7036 120.2399 0025584 244.7567 235.8605 14.19167010987353
FENGYUN 1C DEB          
1 29912U 99025HJ  26073.25074006  .00006100  00000+0  17693-2 0  9994
2 29912  98.7325 178.0867 0039297 305.5912 107.8562 14.44302762993598
FENGYUN 1C DEB          
1 29913U 99025HK  26073.47089566  .00000671  00000+0  41610-3 0  9990
2 29913  98.7929  74.8348 0063081  14.1415 138.5387 14.07497320982559
FENGYUN 1C DEB          
1 29914U 99025HL  26073.87075170 -.00000055  00000+0 -78594-5 0  9992
2 29914  98.8334 104.8081 0034724 216.8848 321.6277 14.03177798980788
FENGYUN 1C DEB          
1 29916U 99025HN  26073.72900715  .00000732  00000+0  85387-3 0  9996
2 29916  99.1892  92.0382 0271344  23.5983  32.3332 13.57111940947000
FENGYUN 1C DEB          
1 29917U 99025HP  26072.87048301  .00001207  00000+0  11777-2 0  9995
2 29917  98.8734 292.6188 0223196 243.9273 136.6315 13.70697675953797
FENGYUN 1C DEB          
1 29918U 99025HQ  26073.84587808  .00004313  00000+0  15450-2 0  9997
2 29918  98.8444 163.4232 0013411  58.0694  61.0624 14.34452984991148
