[{"OBJECT_NAME":"FENGYUN 1C DEB","OBJECT_ID":"1999-025GS","EPOCH":"2026-03-13T05:36:25.083360","MEAN_MOTION":13.65485931,"ECCENTRICITY":0.0238208,"INCLINATION":99.4158,"RA_OF_ASC_NODE":326.4445,"ARG_OF_PERICENTER":229.1366,"MEAN_ANOMALY":259.7165,"EPHEMERIS_TYPE":0,"CLASSIFICATION_TYPE":"U","NORAD_CAT_ID":29896,"ELEMENT_SET_NO":999,"REV_AT_EPOCH":95277,"BSTAR":0.00038526653,"MEAN_MOTION_DOT":3.37e-6,"MEAN_MOTION_DDOT":0},{"OBJECT_NAME":"FENGYUN 1C DEB","OBJECT_ID":"1999-025GT","EPOCH":"2026-03-14T06:56:37.673088","MEAN_MOTION":13.57589038,"ECCENTRICITY":0.02966375,"INCLINATION":98.6273,"RA_OF_ASC_NODE":291.5408,"ARG_OF_PERICENTER":260.8819,"MEAN_ANOMALY":162.7805,"EPHEMERIS_TYPE":0,"CLASSIFICATION_TYPE":"U","NORAD_CAT_ID":29897,"ELEMENT_SET_NO":999,"REV_AT_EPOCH":94182,"BSTAR":0.0019053302,"MEAN_MOTION_DOT":1.782e-5,"MEAN_MOTION_DDOT":0},{"OBJECT_NAME":"FENGYUN 1C DEB","OBJECT_ID":"1999-025GU","EPOCH":"2026-03-14T22:05:33.594144","MEAN_MOTION":13.71381673,"ECCENTRICITY":0.04234048,"INCLINATION":98.2329,"RA_OF_ASC_NODE":58.322,"ARG_OF_PERICENTER":300.774,"MEAN_ANOMALY":111.0812,"EPHEMERIS_TYPE":0,"CLASSIFICATION_TYPE":"U","NORAD_CAT_ID":29898,"ELEMENT_SET_NO":999,"REV_AT_EPOCH":94424,"BSTAR":0.0036168437,"MEAN_MOTION_DOT":6.128e-5,"MEAN_MOTION_DDOT":0},{"OBJECT_NAME":"FENGYUN 1C DEB","OBJECT_ID":"1999-025GV","EPOCH":"2026-03-12T20:23:06.832032","MEAN_MOTION":13.37529342,"ECCENTRICITY":0.03527366,"INCLINATION":98.6734,"RA_OF_ASC_NODE":219.2236,"ARG_OF_PERICENTER":212.179,"MEAN_ANOMALY":145.7373,"EPHEMERIS_TYPE":0,"CLASSIFICATION_TYPE":"U","NORAD_CAT_ID":29899,"ELEMENT_SET_NO":999,"REV_AT_EPOCH":93289,"BSTAR":0.00036907571,"MEAN_MOTION_DOT":2.41e-6,"MEAN_MOTION_DDOT":0},{"OBJECT_NAME":"FENGYUN 1C DEB","OBJECT_ID":"1999-025GX","EPOCH":"2026-03-14T22:14:52.886400","MEAN_MOTION":13.3332213,"ECCENTRICITY":0.03789539,"INCLINATION":98.7561,"RA_OF_ASC_NODE":236.5062,"ARG_OF_PERICENTER":55.8269,"MEAN_ANOMALY":92.4358,"EPHEMERIS_TYPE":0,"CLASSIFICATION_TYPE":"U","NORAD_CAT_ID":29901,"ELEMENT_SET_NO":999,"REV_AT_EPOCH":93147,"BSTAR":0.00032677825,"MEAN_MOTION_DOT":2.07e-6,"MEAN_MOTION_DDOT":0},{"OBJECT_NAME":"FENGYUN 1C DEB","OBJECT_ID":"1999-025HA","EPOCH":"2026-03-14T21:20:23.212320","MEAN_MOTION":14.44844028,"ECCENTRICITY":0.02079107,"INCLINATION":99.0273,"RA_OF_ASC_NODE":122.6081,"ARG_OF_PERICENTER":44.8444,"MEAN_ANOMALY":316.9337,"EPHEMERIS_TYPE":0,"CLASSIFICATION_TYPE":"U","NORAD_CAT_ID":29904,"ELEMENT_SET_NO":999,"REV_AT_EPOCH":388,"BSTAR":0.00051086114,"MEAN_MOTION_DOT":2.259e-5,"MEAN_MOTION_DDOT":0},{"OBJECT_NAME":"FENGYUN 1C DEB","OBJECT_ID":"1999-025HC","EPOCH":"2026-03-14T17:47:13.386624","MEAN_MOTION":14.51383941,"ECCENTRICITY":0.00361279,"INCLINATION":98.7018,"RA_OF_ASC_NODE":185.1858,"ARG_OF_PERICENTER":226.685,"MEAN_ANOMALY":133.133,"EPHEMERIS_TYPE":0,"CLASSIFICATION_TYPE":"U","NORAD_CAT_ID":29906,"ELEMENT_SET_NO":999,"REV_AT_EPOCH":99491,"BSTAR":0.0028953953,"MEAN_MOTION_DOT":0.00011611,"MEAN_MOTION_DDOT":0},{"OBJECT_NAME":"FENGYUN 1C DEB","OBJECT_ID":"1999-025HD","EPOCH":"2026-03-14T16:43:46.721856","MEAN_MOTION":14.12178329,"ECCENTRICITY":0.00804849,"INCLINATION":99.1006,"RA_OF_ASC_NODE":146.7858,"ARG_OF_PERICENTER":352.7381,"MEAN_ANOMALY":128.0473,"EPHEMERIS_TYPE":0,"CLASSIFICATION_TYPE":"U","NORAD_CAT_ID":29907,"ELEMENT_SET_NO":999,"REV_AT_EPOCH":97896,"BSTAR":0.0012022348,"MEAN_MOTION_DOT":2.231e-5,"MEAN_MOTION_DDOT":0},{"OBJECT_NAME":"FENGYUN 1C DEB","OBJECT_ID":"1999-025HF","EPOCH":"2026-03-14T20:55:44.473728","MEAN_MOTION":14.57334905,"ECCENTRICITY":0.0038549,"INCLINATION":98.6311,"RA_OF_ASC_NODE":185.8699,"ARG_OF_PERICENTER":96.4506,"MEAN_ANOMALY":21.5167,"EPHEMERIS_TYPE":0,"CLASSIFICATION_TYPE":"U","NORAD_CAT_ID":29909,"ELEMENT_SET_NO":999,"REV_AT_EPOCH":99746,"BSTAR":0.0027778949,"MEAN_MOTION_DOT":0.00012678,"MEAN_MOTION_DDOT":0},{"OBJECT_NAME":"FENGYUN 1C DEB","OBJECT_ID":"1999-025HH","EPOCH":"2026-03-14T17:12:45.729216","MEAN_MOTION":14.1916701,"ECCENTRICITY":0.00255848,"INCLINATION":98.7036,"RA_OF_ASC_NODE":120.2399,"ARG_OF_PERICENTER":244.7567,"MEAN_ANOMALY":235.8605,"EPHEMERIS_TYPE":0,"CLASSIFICATION_TYPE":"U","NORAD_CAT_ID":29911,"ELEMENT_SET_NO":999,"REV_AT_EPOCH":98735,"BSTAR":0.00065431404,"MEAN_MOTION_DOT":1.331e-5,"MEAN_MOTION_DDOT":0},{"OBJECT_NAME":"FENGYUN 1C DEB","OBJECT_ID":"1999-025HJ","EPOCH":"2026-03-14T06:01:03.941184","MEAN_MOTION":14.44302762,"ECCENTRICITY":0.00392979,"INCLINATION":98.7325,"RA_OF_ASC_NODE":178.0867,"ARG_OF_PERICENTER":305.5912,"MEAN_ANOMALY":107.8562,"EPHEMERIS_TYPE":0,"CLASSIFICATION_TYPE":"U","NORAD_CAT_ID":29912,"ELEMENT_SET_NO":999,"REV_AT_EPOCH":99359,"BSTAR":0.0017692736,"MEAN_MOTION_DOT":6.1e-5,"MEAN_MOTION_DDOT":0},{"OBJECT_NAME":"FENGYUN 1C DEB","OBJECT_ID":"1999-025HK","EPOCH":"2026-03-14T11:18:05.385024","MEAN_MOTION":14.0749732,"ECCENTRICITY":0.00630818,"INCLINATION":98.7929,"RA_OF_ASC_NODE":74.8348,"ARG_OF_PERICENTER":14.1415,"MEAN_ANOMALY":138.5387,"EPHEMERIS_TYPE":0,"CLASSIFICATION_TYPE":"U","NORAD_CAT_ID":29913,"ELEMENT_SET_NO":999,"REV_AT_EPOCH":98255,"BSTAR":0.00041609718,"MEAN_MOTION_DOT":6.71e-6,"MEAN_MOTION_DDOT":0},{"OBJECT_NAME":"FENGYUN 1C DEB","OBJECT_ID":"1999-025HL","EPOCH":"2026-03-14T20:53:52.946880","MEAN_MOTION":14.03177798,"ECCENTRICITY":0.00347247,"INCLINATION":98.8334,"RA_OF_ASC_NODE":104.8081,"ARG_OF_PERICENTER":216.8848,"MEAN_ANOMALY":321.6277,"EPHEMERIS_TYPE":0,"CLASSIFICATION_TYPE":"U","NORAD_CAT_ID":29914,"ELEMENT_SET_NO":999,"REV_AT_EPOCH":98078,"BSTAR":-7.85944e-6,"MEAN_MOTION_DOT":-5.5e-7,"MEAN_MOTION_DDOT":0},{"OBJECT_NAME":"FENGYUN 1C DEB","OBJECT_ID":"1999-025HN","EPOCH":"2026-03-14T17:29:46.217760","MEAN_MOTION":13.5711194,"ECCENTRICITY":0.0271344,"INCLINATION":99.1892,"RA_OF_ASC_NODE":92.0382,"ARG_OF_PERICENTER":23.5983,"MEAN_ANOMALY":32.3332,"EPHEMERIS_TYPE":0,"CLASSIFICATION_TYPE":"U","NORAD_CAT_ID":29916,"ELEMENT_SET_NO":999,"REV_AT_EPOCH":94700,"BSTAR":0.00085387292,"MEAN_MOTION_DOT":7.32e-6,"MEAN_MOTION_DDOT":0},{"OBJECT_NAME":"FENGYUN 1C DEB","OBJECT_ID":"1999-025HP","EPOCH":"2026-03-13T20:53:29.732064","MEAN_MOTION":13.70697675,"ECCENTRICITY":0.02231967,"INCLINATION":98.8734,"RA_OF_ASC_NODE":292.6188,"ARG_OF_PERICENTER":243.9273,"MEAN_ANOMALY":136.6315,"EPHEMERIS_TYPE":0,"CLASSIFICATION_TYPE":"U","NORAD_CAT_ID":29917,"ELEMENT_SET_NO":999,"REV_AT_EPOCH":95379,"BSTAR":0.0011776526,"MEAN_MOTION_DOT":1.207e-5,"MEAN_MOTION_DDOT":0},{"OBJECT_NAME":"FENGYUN 1C DEB","OBJECT_ID":"1999-025HQ","EPOCH":"2026-03-14T20:18:03.866112","MEAN_MOTION":14.34452984,"ECCENTRICITY":0.00134114,"INCLINATION":98.8444,"RA_OF_ASC_NODE":163.4232,"ARG_OF_PERICENTER":58.0694,"MEAN_ANOMALY":61.0624,"EPHEMERIS_TYPE":0,"CLASSIFICATION_TYPE":"U","NORAD_CAT_ID":29918,"ELEMENT_SET_NO":999,"REV_AT_EPOCH":99114,"BSTAR":0.0015449794,"MEAN_MOTION_DOT":4.313e-5,"MEAN_MOTION_DDOT":0}]
